ORBCOMM-X               
1 21576U 91050C   25296.42166034  .00000556  00000+0  17760-3 0  9995
2 21576  98.3294   0.3235 0004290 144.3913 215.7564 14.43373143800619
ORBCOMM FM01            
1 23545U 95017A   25296.48858961  .00009361  00000+0  93050-3 0  9992
2 23545  69.9601 113.8310 0001969 174.7379 185.3798 14.91947500631632
ORBCOMM FM02            
1 23546U 95017B   25296.67788816  .00011002  00000+0  10578-2 0  9993
2 23546  69.9614 132.2549 0003305 154.0999 206.0323 14.93206327631329
ORBCOMM FM08            
1 25112U 97084A   25296.68503718  .00002370  00000+0  69457-3 0  9996
2 25112  45.0116 110.8188 0006938 176.9019 183.1877 14.46303034459973
ORBCOMM FM10            
1 25113U 97084B   25296.68569197  .00002387  00000+0  70254-3 0  9995
2 25113  45.0127 113.4279 0005411 145.0710 215.0497 14.46079546635119
ORBCOMM FM11            
1 25114U 97084C   25296.64363198  .00002063  00000+0  61598-3 0  9997
2 25114  45.0113 114.4987 0006230 146.0194 214.1057 14.45813251460069
ORBCOMM FM12            
1 25115U 97084D   25296.67346551  .00002178  00000+0  64793-3 0  9992
2 25115  45.0120 114.0933 0005305 143.2444 216.8772 14.45834756459866
ORBCOMM FM09            
1 25116U 97084E   25296.64833330  .00002222  00000+0  66187-3 0  9995
2 25116  45.0123 115.2813 0006461 133.3129 226.8262 14.45694285460064
